#aV2024  8 20  0  0  0.00000000     288 DD+AD WGS84 FIT  NGA
## 2328 172800.00000000   300.00000000 60542 0.0000000000000
+   31     2  3  4  5  6  7  8  9 10 11 12 13 14 15 16 17 18
+         19 20 21 22 23 24 25 26 27 28 29 30 31 32  0  0  0
+          0  0  0  0  0  0  0  0  0  0  0  0  0  0  0  0  0
+          0  0  0  0  0  0  0  0  0  0  0  0  0  0  0  0  0
+          0  0  0  0  0  0  0  0  0  0  0  0  0  0  0  0  0
++         2  2  2  2  2  2  2  2  2  2  2  2  2  2  2  2  2
++         2  2  2  2  2  2  2  2  2  2  2  2  2  2  0  0  0
++         0  0  0  0  0  0  0  0  0  0  0  0  0  0  0  0  0
++         0  0  0  0  0  0  0  0  0  0  0  0  0  0  0  0  0
++         0  0  0  0  0  0  0  0  0  0  0  0  0  0  0  0  0
%c cc cc ccc ccc cccc cccc cccc cccc ccccc ccccc ccccc ccccc
%c cc cc ccc ccc cccc cccc cccc cccc ccccc ccccc ccccc ccccc
%f  0.0000000  0.000000000  0.00000000000  0.000000000000000
%f  0.0000000  0.000000000  0.00000000000  0.000000000000000
%i    0    0    0    0      0      0      0      0         0
%i    0    0    0    0      0      0      0      0         0
/*      NGA, ST. LOUIS,MO.                                  
/*   EPHEMERIS COMPUTED FROM 2 DAYS OF DATA                 
/*   EPOCHA v9 SMOOTHER                                     
/*   G2296 IERS2010 SATIGS SATAPC                           
*  2024  8 20  9 45  0.00000000
P  2  19446.934257   8373.755514  16702.990207   -375.247853                    
V  2  10069.915423  17545.538896 -20809.854318      0.076911                    
P  3  17743.759767  -5047.317221  18897.540310    507.038112                    
V  3 -11668.349395  21377.243037  16627.755094      0.144341                    
P  4  26608.679386    744.554751  -1013.642835    427.733876                    
V  4   1158.363507   2604.836244  31738.318276      0.073815                    
P  5 -10608.909071 -11455.060532 -21661.610301   -183.818446                    
V  5  13255.027113 -23578.621440   6099.238762     -0.012828                    
P  6  -2861.474944 -23126.776630  12707.959910     86.506484                    
V  6   8950.749123  13390.836762  26618.114065     -0.246917                    
P  7  12161.842214  -9252.260793 -21171.548638    -49.057020                    
V  7  14082.571472  24441.850643  -2979.433115      0.056645                    
P  8  23703.849791   7009.576292 -10387.901930    322.510521                    
V  8 -12859.059449   2580.813836 -27476.589795      0.142624                    
P  9  22662.247381  -8110.341914 -11381.879214    321.731880                    
V  9  14312.946697   2293.190324  27021.032414      0.156289                    
P 10  -9442.615900  23838.110795   6431.533276    -99.404828                    
V 10  -5994.871480   5659.352209 -31097.784691     -0.112988                    
P 11 -12445.770481 -23477.140782  -1129.551208   -724.043834                    
V 11   1671.405499  -2456.702573  31792.407198     -0.053365                    
P 12 -17371.884510    720.222567  19785.333765   -531.764087                    
V 12  13792.873945 -21781.342861  12768.865069     -0.029291                    
P 13 -16975.145026 -13573.572601 -15650.678550    671.861905                    
V 13  19342.313361   1614.447398 -22470.389466      0.021795                    
P 14  12568.203619 -23133.179297   2472.535373    476.633703                    
V 14   4623.442421   -754.604285 -31329.490554      0.086825                    
P 15 -24233.905275  -4563.777992 -10606.090608    194.698622                    
V 15  12204.717657  -4565.240981 -27080.420086      0.043297                    
P 16   6726.902830  15429.290569 -20774.914438   -203.592594                    
V 16 -16006.680286  20182.612198  10406.943818      0.103477                    
P 17   9636.788019 -13760.547602  21033.226688    649.980151                    
V 17  25553.296445   2703.153273  -9979.789617     -0.098338                    
P 18 -11441.740525   9953.888076 -21767.312269   -647.597167                    
V 18 -13292.858702 -24261.941692  -4314.666711     -0.029869                    
P 19   -603.172973 -15142.420721  21678.833579    527.042768                    
V 19  27651.669252   3379.606970   2698.923679      0.051010                    
P 20  -4481.541885 -20546.508235 -16245.990376    371.494439                    
V 20   9171.524729 -18668.145064  20845.071748     -0.004045                    
P 21  19881.655689  13922.431242  12346.827478    103.239419                    
V 21   7039.831518  12924.304315 -25790.026591     -0.005536                    
P 22   7671.938563 -23340.262720  10874.627613    -53.225239                    
V 22   9470.450923  -9295.424799 -27404.283899     -0.040997                    
P 23 -16199.870745  19884.772780  -6420.257385    301.472201                    
V 23   2053.227931  -8281.650022 -30914.827706      0.086024                    
P 24 -19849.691483 -10625.467126  13967.216183   -486.458085                    
V 24  -8284.872968 -16612.778420 -23268.840966     -0.005091                    
P 25 -18556.224752  12808.385480  13491.883228    499.375614                    
V 25   6534.351010 -16809.756795  24593.507551      0.001696                    
P 26  -1377.845191  23404.040840 -12274.535931     96.764203                    
V 26  -9882.704668  12467.740952  25575.672074     -0.077965                    
P 27  14976.530770  12898.218715 -18230.002026    -33.233058                    
V 27 -22418.983349   1014.556257 -17573.160668     -0.004392                    
P 28   1658.997121  22307.035413  14309.509744   -379.675755                    
V 28 -11112.514118 -14551.166795  23955.517115     -0.147469                    
P 29 -24965.727979   3538.891014  -8592.676869   -582.990992                    
V 29 -10542.899774  -3223.654638  29335.325119      0.022237                    
P 30   4341.963921 -19076.789154 -17690.324706   -336.673314                    
V 30  13031.506719  19015.426698 -17425.176353      0.068381                    
P 31   9968.600249  24129.964011   3350.687147   -225.669564                    
V 31  -5079.937601  -2508.244515  31483.253559      0.003852                    
P 32  -7027.748111  14670.609073  21173.642642   -604.377917                    
V 32 -26417.105237  -1017.780593  -8342.860683      0.029390                    
EOF
